H1 CPF 01  gfz 2021 06 01 00  6521 tandemx   
H2 1003001  6202 36605    2021 06 01 00 59 42 2021 06 06 00 00 42   120 1 1  0 0 0
H9
10 0 59366  86382.000000  0    -707122.089   4502361.765   5155461.650
10 0 59367    102.000000  0    -583733.357   5157605.479   4519462.553
10 0 59367    222.000000  0    -439485.690   5720370.963   3803916.427
10 0 59367    342.000000  0    -278604.950   6180464.989   3021396.995
10 0 59367    462.000000  0    -105772.694   6529574.289   2185672.932
10 0 59367    582.000000  0      73990.915   6761426.892   1311459.540
10 0 59367    702.000000  0     255453.831   6871910.681    414154.088
10 0 59367    822.000000  0     433304.171   6859151.145   -490442.558
10 0 59367    942.000000  0     602285.137   6723543.699  -1386413.700
10 0 59367   1062.000000  0     757327.253   6467738.928  -2258015.499
10 0 59367   1182.000000  0     893675.646   6096583.808  -3089960.037
10 0 59367   1302.000000  0    1007010.333   5617020.213  -3867687.550
10 0 59367   1422.000000  0    1093556.040   5037943.373  -4577622.396
10 0 59367   1542.000000  0    1150178.954   4370024.223  -5207407.229
10 0 59367   1662.000000  0    1174468.253   3625501.315  -5746111.071
10 0 59367   1782.000000  0    1164800.427   2817948.021  -6184410.039
10 0 59367   1902.000000  0    1120385.751   1962018.688  -6514737.451
10 0 59367   2022.000000  0    1041296.140   1073181.680  -6731402.199
10 0 59367   2142.000000  0     928474.223    167442.351  -6830677.742
10 0 59367   2262.000000  0     783723.747   -738940.712  -6810859.042
10 0 59367   2382.000000  0     609680.786  -1629741.199  -6672287.245
10 0 59367   2502.000000  0     409767.237  -2489046.813  -6417343.423
10 0 59367   2622.000000  0     188126.704  -3301536.619  -6050414.474
10 0 59367   2742.000000  0     -50457.456  -4052752.079  -5577825.828
10 0 59367   2862.000000  0    -300658.823  -4729353.592  -5007742.291
10 0 59367   2982.000000  0    -556719.244  -5319361.037  -4350038.939
10 0 59367   3102.000000  0    -812573.216  -5812373.682  -3616141.017
10 0 59367   3222.000000  0   -1061982.475  -6199763.948  -2818834.062
10 0 59367   3342.000000  0   -1298678.069  -6474840.423  -1972047.291
10 0 59367   3462.000000  0   -1516506.923  -6632976.840  -1090612.356
10 0 59367   3582.000000  0   -1709578.897  -6671701.513   -190001.089
10 0 59367   3702.000000  0   -1872410.943  -6590744.238    713951.610
10 0 59367   3822.000000  0   -2000064.912  -6392039.219   1605333.909
10 0 59367   3942.000000  0   -2088274.973  -6079683.389   2468446.252
10 0 59367   4062.000000  0   -2133560.954  -5659850.611   3288087.017
10 0 59367   4182.000000  0   -2133324.504  -5140664.106   4049827.402
10 0 59367   4302.000000  0   -2085925.969  -4532031.563   4740269.644
10 0 59367   4422.000000  0   -1990740.826  -3845447.936   5347284.135
10 0 59367   4542.000000  0   -1848194.515  -3093768.990   5860222.406
10 0 59367   4662.000000  0   -1659773.393  -2290961.544   6270099.563
10 0 59367   4782.000000  0   -1428012.747  -1451838.778   6569745.499
10 0 59367   4902.000000  0   -1156463.421   -591783.343   6753924.932
10 0 59367   5022.000000  0    -849637.794    273536.905   6819422.433
10 0 59367   5142.000000  0    -512935.070   1128453.345   6765095.073
10 0 59367   5262.000000  0    -152546.094   1957580.043   6591891.759
10 0 59367   5382.000000  0     224660.403   2746090.528   6302837.551
10 0 59367   5502.000000  0     611267.805   3479982.936   5902983.830
10 0 59367   5622.000000  0     999455.612   4146331.017   5399325.501
10 0 59367   5742.000000  0    1381155.738   4733516.240   4800684.430
10 0 59367   5862.000000  0    1748218.295   5231437.262   4117560.257
10 0 59367   5982.000000  0    2092583.577   5631690.706   3361951.067
10 0 59367   6102.000000  0    2406457.791   5927723.101   2547146.083
10 0 59367   6222.000000  0    2682485.773   6114947.820   1687488.811
10 0 59367   6342.000000  0    2913919.080   6190821.306    798118.984
10 0 59367   6462.000000  0    3094772.039   6154877.720   -105301.322
10 0 59367   6582.000000  0    3219964.358   6008722.576  -1006871.270
10 0 59367   6702.000000  0    3285446.248   5755984.213  -1890739.506
10 0 59367   6822.000000  0    3288302.441   5402225.579  -2741390.163
10 0 59367   6942.000000  0    3226832.894   4954817.623  -3543921.523
10 0 59367   7062.000000  0    3100607.131   4422777.480  -4284309.724
10 0 59367   7182.000000  0    2910492.344   3816578.338  -4949651.917
10 0 59367   7302.000000  0    2658654.805   3147935.415  -5528386.151
10 0 59367   7422.000000  0    2348536.177   2429572.855  -6010484.076
10 0 59367   7542.000000  0    1984804.231   1674977.154  -6387614.223
10 0 59367   7662.000000  0    1573280.290    898142.810  -6653273.677
10 0 59367   7782.000000  0    1120845.968    113315.363  -6802889.351
10 0 59367   7902.000000  0     635328.101   -665265.336  -6833889.365
10 0 59367   8022.000000  0     125364.689  -1423618.186  -6745741.036
10 0 59367   8142.000000  0    -399744.559  -2148264.429  -6539957.951
10 0 59367   8262.000000  0    -930203.112  -2826461.183  -6220078.476
10 0 59367   8382.000000  0   -1455896.018  -3446423.026  -5791611.467
10 0 59367   8502.000000  0   -1966577.773  -3997525.490  -5261950.807
10 0 59367   8622.000000  0   -2452068.549  -4470490.096  -4640260.325
10 0 59367   8742.000000  0   -2902456.023  -4857547.249  -3937326.560
10 0 59367   8862.000000  0   -3308297.459  -5152571.507  -3165380.742
10 0 59367   8982.000000  0   -3660818.064  -5351187.347  -2337893.411
10 0 59367   9102.000000  0   -3952101.931  -5450842.587  -1469343.285
10 0 59367   9222.000000  0   -4175270.166  -5450846.637   -574963.588
10 0 59367   9342.000000  0   -4324640.904  -5352371.852    329529.370
10 0 59367   9462.000000  0   -4395867.101  -5158417.299   1228219.457
10 0 59367   9582.000000  0   -4386048.330  -4873734.896   2105280.214
10 0 59367   9702.000000  0   -4293812.673  -4504719.254   2945262.803
10 0 59367   9822.000000  0   -4119367.582  -4059265.380   3733375.666
10 0 59367   9942.000000  0   -3864518.539  -3546597.832   4455751.125
10 0 59367  10062.000000  0   -3532654.224  -2977074.631   5099692.657
10 0 59367  10182.000000  0   -3128700.050  -2361972.591   5653896.771
10 0 59367  10302.000000  0   -2659041.704  -1713260.317   6108648.318
10 0 59367  10422.000000  0   -2131420.229  -1043362.118   6455987.204
10 0 59367  10542.000000  0   -1554799.811   -364916.204   6689843.134
10 0 59367  10662.000000  0    -939211.091    309465.056   6806133.586
10 0 59367  10782.000000  0    -295576.508    967427.860   6802829.944
10 0 59367  10902.000000  0     364483.223   1597102.807   6679991.274
10 0 59367  11022.000000  0    1028858.601   2187319.065   6439763.503
10 0 59367  11142.000000  0    1685172.962   2727802.472   6086343.416
10 0 59367  11262.000000  0    2321012.144   3209355.021   5625910.219
10 0 59367  11382.000000  0    2924160.050   3624014.767   5066524.462
10 0 59367  11502.000000  0    3482836.489   3965192.069   4417992.089
10 0 59367  11622.000000  0    3985929.272   4227777.498   3691696.680
10 0 59367  11742.000000  0    4423219.905   4408224.107   2900405.289
10 0 59367  11862.000000  0    4785597.916   4504596.914   2058041.524
10 0 59367  11982.000000  0    5065252.664   4516590.181   1179438.062
10 0 59367  12102.000000  0    5255844.721   4445511.466    280069.787
10 0 59367  12222.000000  0    5352647.529   4294231.973   -624228.101
10 0 59367  12342.000000  0    5352655.661   4067104.643  -1517547.834
10 0 59367  12462.000000  0    5254659.260   3769852.747  -2384196.813
10 0 59367  12582.000000  0    5059282.166   3409431.290  -3208979.445
10 0 59367  12702.000000  0    4768983.078   2993866.668  -3977466.910
10 0 59367  12822.000000  0    4388020.292   2532078.238  -4676250.629
10 0 59367  12942.000000  0    3922381.120   2033684.608  -5293172.763
10 0 59367  13062.000000  0    3379679.355   1508801.928  -5817530.091
10 0 59367  13182.000000  0    2769023.075    967838.731  -6240250.216
10 0 59367  13302.000000  0    2100855.535    421290.891  -6554037.056
10 0 59367  13422.000000  0    1386774.430   -120458.572  -6753484.636
10 0 59367  13542.000000  0     639332.105   -647332.525  -6835162.023
10 0 59367  13662.000000  0    -128183.273  -1149743.092  -6797665.322
10 0 59367  13782.000000  0    -901978.038  -1618760.886  -6641637.762
10 0 59367  13902.000000  0   -1667994.576  -2046269.547  -6369760.905
10 0 59367  14022.000000  0   -2412161.154  -2425104.218  -5986713.481
10 0 59367  14142.000000  0   -3120644.769  -2749170.463  -5499099.138
10 0 59367  14262.000000  0   -3780105.845  -3013543.850  -4915344.941
10 0 59367  14382.000000  0   -4377951.289  -3214548.019  -4245567.185
10 0 59367  14502.000000  0   -4902578.575  -3349808.020  -3501406.259
10 0 59367  14622.000000  0   -5343607.420  -3418278.643  -2695833.018
10 0 59367  14742.000000  0   -5692093.511  -3420246.458  -1842927.706
10 0 59367  14862.000000  0   -5940717.962  -3357304.565   -957635.024
10 0 59367  14982.000000  0   -6083948.162  -3232300.604    -55500.007
10 0 59367  15102.000000  0   -6118165.259  -3049258.513    847610.319
10 0 59367  15222.000000  0   -6041754.646  -2813276.113   1735794.774
10 0 59367  15342.000000  0   -5855154.250  -2530399.767   2593408.239
10 0 59367  15462.000000  0   -5560861.305  -2207480.377   3405344.875
10 0 59367  15582.000000  0   -5163398.792  -1852015.038   4157312.115
10 0 59367  15702.000000  0   -4669238.480  -1471976.174   4836086.904
10 0 59367  15822.000000  0   -4086687.265  -1075635.342   5429747.610
10 0 59367  15942.000000  0   -3425740.310   -671385.711   5927881.516
10 0 59367  16062.000000  0   -2697901.795   -267565.250   6321764.733
10 0 59367  16182.000000  0   -1915976.762    127714.521   6604509.457
10 0 59367  16302.000000  0   -1093840.576    506729.187   6771177.227
10 0 59367  16422.000000  0    -246190.835    862290.563   6818859.796
99
